[{"OBJECT_NAME":"STARLINK-3798","OBJECT_ID":"2022-045AS","EPOCH":"2026-03-09T13:39:53.237952","MEAN_MOTION":15.08836847,"ECCENTRICITY":0.0001206,"INCLINATION":53.2176,"RA_OF_ASC_NODE":189.673,"ARG_OF_PERICENTER":88.5315,"MEAN_ANOMALY":271.5816,"EPHEMERIS_TYPE":0,"CLASSIFICATION_TYPE":"U","NORAD_CAT_ID":52371,"ELEMENT_SET_NO":999,"REV_AT_EPOCH":21589,"BSTAR":-3.1608e-5,"MEAN_MOTION_DOT":-7.91e-6,"MEAN_MOTION_DDOT":0},{"OBJECT_NAME":"OBJECT R","OBJECT_ID":"2023-091R","EPOCH":"2026-03-09T23:14:08.723328","MEAN_MOTION":15.13803604,"ECCENTRICITY":0.00168604,"INCLINATION":97.5196,"RA_OF_ASC_NODE":124.2169,"ARG_OF_PERICENTER":118.5914,"MEAN_ANOMALY":241.7016,"EPHEMERIS_TYPE":0,"CLASSIFICATION_TYPE":"U","NORAD_CAT_ID":57181,"ELEMENT_SET_NO":999,"REV_AT_EPOCH":14867,"BSTAR":0.00029975355,"MEAN_MOTION_DOT":5.364e-5,"MEAN_MOTION_DDOT":0}]
